[{"OBJECT_NAME":"COSMOS 2579","OBJECT_ID":"2024-197A","EPOCH":"2026-03-09T23:06:38.118816","MEAN_MOTION":15.2412329,"ECCENTRICITY":0.00026117,"INCLINATION":97.557,"RA_OF_ASC_NODE":352.0823,"ARG_OF_PERICENTER":56.3903,"MEAN_ANOMALY":303.7583,"EPHEMERIS_TYPE":0,"CLASSIFICATION_TYPE":"U","NORAD_CAT_ID":61730,"ELEMENT_SET_NO":999,"REV_AT_EPOCH":7535,"BSTAR":0.00021686366,"MEAN_MOTION_DOT":5.199e-5,"MEAN_MOTION_DDOT":0},{"OBJECT_NAME":"OBJECT AC","OBJECT_ID":"2025-313AC","EPOCH":"2026-03-09T21:09:33.957792","MEAN_MOTION":15.21172944,"ECCENTRICITY":0.00146625,"INCLINATION":97.3999,"RA_OF_ASC_NODE":145.117,"ARG_OF_PERICENTER":358.5779,"MEAN_ANOMALY":1.5413,"EPHEMERIS_TYPE":0,"CLASSIFICATION_TYPE":"U","NORAD_CAT_ID":67274,"ELEMENT_SET_NO":999,"REV_AT_EPOCH":1084,"BSTAR":0.00041099794,"MEAN_MOTION_DOT":9.12e-5,"MEAN_MOTION_DDOT":0}]
